<?xml version='1.0' encoding='UTF-8'?>
<gpx xmlns="http://www.topografix.com/GPX/1/1" version="1.1" creator="exobrain trip plan">
<metadata><name>Cedar Creek 1 night (17 mi)</name><desc>Trail geometry from OpenStreetMap contributors (ODbL).</desc></metadata>
<wpt lat="38.758772" lon="-92.142490"><name>Pine Ridge Recreation Area</name></wpt>
<wpt lat="38.776454" lon="-92.141019"><name>Nevins Homestead (approx., from the USFS map)</name></wpt>
<wpt lat="38.784866" lon="-92.126903"><name>Dry Fork Recreation Area</name></wpt>
<wpt lat="38.8182489" lon="-92.1386117"><name>Overlook above Cedar Creek</name></wpt>
<wpt lat="38.818076" lon="-92.144144"><name>Rutherford Bridge</name></wpt>
<wpt lat="38.824090" lon="-92.137792"><name>Smith Creek Trailhead</name></wpt>
<wpt lat="38.814197" lon="-92.111711"><name>Boydsville</name></wpt>
<trk><name>Day 1: Pine Ridge to Rutherford Bridge (8.0 mi)</name><trkseg><trkpt lat="38.758772" lon="-92.142490" /><trkpt lat="38.758825" lon="-92.142379" /><trkpt lat="38.758989" lon="-92.142221" /><trkpt lat="38.759142" lon="-92.142119" /><trkpt lat="38.759295" lon="-92.142094" /><trkpt lat="38.759429" lon="-92.142025" /><trkpt lat="38.759552" lon="-92.142027" /><trkpt lat="38.759607" lon="-92.142086" /><trkpt lat="38.759613" lon="-92.142175" /><trkpt lat="38.759582" lon="-92.142266" /><trkpt lat="38.759529" lon="-92.142277" /><trkpt lat="38.759435" lon="-92.142274" /><trkpt lat="38.759358" lon="-92.142318" /><trkpt lat="38.759324" lon="-92.142379" /><trkpt lat="38.759316" lon="-92.142457" /><trkpt lat="38.759358" lon="-92.142543" /><trkpt lat="38.759456" lon="-92.142541" /><trkpt lat="38.759611" lon="-92.142576" /><trkpt lat="38.759754" lon="-92.142664" /><trkpt lat="38.759892" lon="-92.142672" /><trkpt lat="38.759976" lon="-92.142611" /><trkpt lat="38.760016" lon="-92.142484" /><trkpt lat="38.760087" lon="-92.142417" /><trkpt lat="38.760185" lon="-92.142433" /><trkpt lat="38.760269" lon="-92.142492" /><trkpt lat="38.760406" lon="-92.142686" /><trkpt lat="38.760540" lon="-92.143000" /><trkpt lat="38.760584" lon="-92.143283" /><trkpt lat="38.760666" lon="-92.143549" /><trkpt lat="38.760770" lon="-92.143630" /><trkpt lat="38.760892" lon="-92.143678" /><trkpt lat="38.760955" lon="-92.143667" /><trkpt lat="38.761043" lon="-92.143613" /><trkpt lat="38.761062" lon="-92.143533" /><trkpt lat="38.761079" lon="-92.143296" /><trkpt lat="38.761037" lon="-92.143086" /><trkpt lat="38.761026" lon="-92.142990" /><trkpt lat="38.761055" lon="-92.142895" /><trkpt lat="38.761128" lon="-92.142865" /><trkpt lat="38.761225" lon="-92.142946" /><trkpt lat="38.761298" lon="-92.142912" /><trkpt lat="38.761375" lon="-92.142908" /><trkpt lat="38.761395" lon="-92.142972" /><trkpt lat="38.761448" lon="-92.143019" /><trkpt lat="38.761564" lon="-92.143036" /><trkpt lat="38.761594" lon="-92.142925" /><trkpt lat="38.761687" lon="-92.142827" /><trkpt lat="38.761784" lon="-92.142814" /><trkpt lat="38.761827" lon="-92.142887" /><trkpt lat="38.761774" lon="-92.143032" /><trkpt lat="38.761804" lon="-92.143215" /><trkpt lat="38.761747" lon="-92.143318" /><trkpt lat="38.761711" lon="-92.143471" /><trkpt lat="38.761727" lon="-92.143608" /><trkpt lat="38.761817" lon="-92.143685" /><trkpt lat="38.761854" lon="-92.143804" /><trkpt lat="38.761944" lon="-92.143873" /><trkpt lat="38.762023" lon="-92.143860" /><trkpt lat="38.762073" lon="-92.143949" /><trkpt lat="38.762050" lon="-92.144090" /><trkpt lat="38.761964" lon="-92.144150" /><trkpt lat="38.761934" lon="-92.144222" /><trkpt lat="38.761954" lon="-92.144372" /><trkpt lat="38.762033" lon="-92.144419" /><trkpt lat="38.762123" lon="-92.144414" /><trkpt lat="38.762240" lon="-92.144436" /><trkpt lat="38.762333" lon="-92.144526" /><trkpt lat="38.762400" lon="-92.144538" /><trkpt lat="38.762459" lon="-92.144513" /><trkpt lat="38.762479" lon="-92.144444" /><trkpt lat="38.762453" lon="-92.144291" /><trkpt lat="38.762449" lon="-92.144137" /><trkpt lat="38.762539" lon="-92.143890" /><trkpt lat="38.762599" lon="-92.143706" /><trkpt lat="38.762589" lon="-92.143561" /><trkpt lat="38.762549" lon="-92.143420" /><trkpt lat="38.762626" lon="-92.143305" /><trkpt lat="38.762646" lon="-92.143100" /><trkpt lat="38.762726" lon="-92.142951" /><trkpt lat="38.762785" lon="-92.142908" /><trkpt lat="38.762875" lon="-92.142929" /><trkpt lat="38.763022" lon="-92.143087" /><trkpt lat="38.763118" lon="-92.143117" /><trkpt lat="38.763248" lon="-92.143109" /><trkpt lat="38.763334" lon="-92.143151" /><trkpt lat="38.763418" lon="-92.143288" /><trkpt lat="38.763511" lon="-92.143437" /><trkpt lat="38.763624" lon="-92.143484" /><trkpt lat="38.763717" lon="-92.143437" /><trkpt lat="38.763834" lon="-92.143203" /><trkpt lat="38.763894" lon="-92.143147" /><trkpt lat="38.763993" lon="-92.143160" /><trkpt lat="38.764070" lon="-92.143249" /><trkpt lat="38.764150" lon="-92.143267" /><trkpt lat="38.764299" lon="-92.143194" /><trkpt lat="38.764463" lon="-92.143237" /><trkpt lat="38.764539" lon="-92.143318" /><trkpt lat="38.764519" lon="-92.143480" /><trkpt lat="38.764496" lon="-92.143595" /><trkpt lat="38.764629" lon="-92.143710" /><trkpt lat="38.764676" lon="-92.143868" /><trkpt lat="38.764679" lon="-92.143954" /><trkpt lat="38.764872" lon="-92.143966" /><trkpt lat="38.764968" lon="-92.144056" /><trkpt lat="38.765015" lon="-92.144154" /><trkpt lat="38.765088" lon="-92.144184" /><trkpt lat="38.765128" lon="-92.144159" /><trkpt lat="38.765201" lon="-92.143971" /><trkpt lat="38.765328" lon="-92.143928" /><trkpt lat="38.765441" lon="-92.143984" /><trkpt lat="38.765517" lon="-92.144060" /><trkpt lat="38.765634" lon="-92.144082" /><trkpt lat="38.765794" lon="-92.144043" /><trkpt lat="38.766114" lon="-92.144131" /><trkpt lat="38.766325" lon="-92.143955" /><trkpt lat="38.766491" lon="-92.143892" /><trkpt lat="38.766596" lon="-92.143862" /><trkpt lat="38.766705" lon="-92.143913" /><trkpt lat="38.766800" lon="-92.144025" /><trkpt lat="38.766953" lon="-92.144200" /><trkpt lat="38.767039" lon="-92.144275" /><trkpt lat="38.767111" lon="-92.144291" /><trkpt lat="38.767173" lon="-92.144238" /><trkpt lat="38.767373" lon="-92.143955" /><trkpt lat="38.767497" lon="-92.143735" /><trkpt lat="38.767720" lon="-92.143656" /><trkpt lat="38.767878" lon="-92.143715" /><trkpt lat="38.767983" lon="-92.143907" /><trkpt lat="38.768122" lon="-92.144202" /><trkpt lat="38.768545" lon="-92.144565" /><trkpt lat="38.768775" lon="-92.145165" /><trkpt lat="38.768934" lon="-92.145444" /><trkpt lat="38.769052" lon="-92.145535" /><trkpt lat="38.769199" lon="-92.145527" /><trkpt lat="38.769320" lon="-92.145382" /><trkpt lat="38.769520" lon="-92.144994" /><trkpt lat="38.769617" lon="-92.144837" /><trkpt lat="38.769701" lon="-92.144800" /><trkpt lat="38.769777" lon="-92.144864" /><trkpt lat="38.769777" lon="-92.145048" /><trkpt lat="38.769846" lon="-92.145239" /><trkpt lat="38.770022" lon="-92.145361" /><trkpt lat="38.770122" lon="-92.145321" /><trkpt lat="38.770189" lon="-92.145171" /><trkpt lat="38.770247" lon="-92.144944" /><trkpt lat="38.770391" lon="-92.144820" /><trkpt lat="38.770450" lon="-92.144662" /><trkpt lat="38.770343" lon="-92.144432" /><trkpt lat="38.770358" lon="-92.144152" /><trkpt lat="38.770453" lon="-92.143969" /><trkpt lat="38.770563" lon="-92.143877" /><trkpt lat="38.770784" lon="-92.143895" /><trkpt lat="38.771051" lon="-92.143959" /><trkpt lat="38.771413" lon="-92.143953" /><trkpt lat="38.771759" lon="-92.143948" /><trkpt lat="38.771970" lon="-92.143920" /><trkpt lat="38.772137" lon="-92.144168" /><trkpt lat="38.772292" lon="-92.144551" /><trkpt lat="38.772332" lon="-92.144843" /><trkpt lat="38.772267" lon="-92.145271" /><trkpt lat="38.772303" lon="-92.145440" /><trkpt lat="38.772396" lon="-92.145591" /><trkpt lat="38.772585" lon="-92.145582" /><trkpt lat="38.773020" lon="-92.145407" /><trkpt lat="38.773325" lon="-92.145146" /><trkpt lat="38.773759" lon="-92.144644" /><trkpt lat="38.774029" lon="-92.144182" /><trkpt lat="38.774160" lon="-92.143963" /><trkpt lat="38.774228" lon="-92.143905" /><trkpt lat="38.774243" lon="-92.143972" /><trkpt lat="38.774205" lon="-92.144181" /><trkpt lat="38.774257" lon="-92.144311" /><trkpt lat="38.774251" lon="-92.144369" /><trkpt lat="38.774184" lon="-92.144539" /><trkpt lat="38.773994" lon="-92.144916" /><trkpt lat="38.773990" lon="-92.145020" /><trkpt lat="38.774043" lon="-92.145070" /><trkpt lat="38.774188" lon="-92.145040" /><trkpt lat="38.774281" lon="-92.145027" /><trkpt lat="38.774407" lon="-92.144924" /><trkpt lat="38.774537" lon="-92.144666" /><trkpt lat="38.774671" lon="-92.144412" /><trkpt lat="38.774701" lon="-92.144308" /><trkpt lat="38.774781" lon="-92.144101" /><trkpt lat="38.774949" lon="-92.143778" /><trkpt lat="38.775376" lon="-92.143012" /><trkpt lat="38.775468" lon="-92.142698" /><trkpt lat="38.775581" lon="-92.142444" /><trkpt lat="38.775799" lon="-92.142495" /><trkpt lat="38.775885" lon="-92.142441" /><trkpt lat="38.776005" lon="-92.142202" /><trkpt lat="38.776044" lon="-92.141897" /><trkpt lat="38.776206" lon="-92.141711" /><trkpt lat="38.776398" lon="-92.141360" /><trkpt lat="38.776454" lon="-92.141019" /><trkpt lat="38.776733" lon="-92.140646" /><trkpt lat="38.776988" lon="-92.140270" /><trkpt lat="38.777186" lon="-92.140129" /><trkpt lat="38.777368" lon="-92.140073" /><trkpt lat="38.777722" lon="-92.139996" /><trkpt lat="38.778107" lon="-92.140073" /><trkpt lat="38.778345" lon="-92.140118" /><trkpt lat="38.778483" lon="-92.140039" /><trkpt lat="38.778601" lon="-92.139801" /><trkpt lat="38.778822" lon="-92.139515" /><trkpt lat="38.779106" lon="-92.139272" /><trkpt lat="38.779260" lon="-92.139247" /><trkpt lat="38.779697" lon="-92.138859" /><trkpt lat="38.779901" lon="-92.138767" /><trkpt lat="38.780043" lon="-92.138745" /><trkpt lat="38.780337" lon="-92.138616" /><trkpt lat="38.780452" lon="-92.138487" /><trkpt lat="38.780613" lon="-92.138385" /><trkpt lat="38.780827" lon="-92.138317" /><trkpt lat="38.780917" lon="-92.138248" /><trkpt lat="38.780986" lon="-92.138180" /><trkpt lat="38.781085" lon="-92.137960" /><trkpt lat="38.781215" lon="-92.137707" /><trkpt lat="38.781472" lon="-92.137377" /><trkpt lat="38.781542" lon="-92.137129" /><trkpt lat="38.781602" lon="-92.137046" /><trkpt lat="38.781667" lon="-92.136998" /><trkpt lat="38.781812" lon="-92.136963" /><trkpt lat="38.782059" lon="-92.136973" /><trkpt lat="38.782202" lon="-92.136869" /><trkpt lat="38.782466" lon="-92.136718" /><trkpt lat="38.782707" lon="-92.136686" /><trkpt lat="38.782887" lon="-92.136618" /><trkpt lat="38.783313" lon="-92.136285" /><trkpt lat="38.783465" lon="-92.136086" /><trkpt lat="38.783562" lon="-92.135812" /><trkpt lat="38.783556" lon="-92.135640" /><trkpt lat="38.783591" lon="-92.135406" /><trkpt lat="38.783608" lon="-92.135108" /><trkpt lat="38.783597" lon="-92.134820" /><trkpt lat="38.783579" lon="-92.134656" /><trkpt lat="38.783602" lon="-92.134465" /><trkpt lat="38.783549" lon="-92.134247" /><trkpt lat="38.783581" lon="-92.134113" /><trkpt lat="38.783662" lon="-92.133933" /><trkpt lat="38.783669" lon="-92.133747" /><trkpt lat="38.783648" lon="-92.133562" /><trkpt lat="38.783627" lon="-92.133317" /><trkpt lat="38.783648" lon="-92.133115" /><trkpt lat="38.783723" lon="-92.132916" /><trkpt lat="38.783761" lon="-92.132726" /><trkpt lat="38.783744" lon="-92.132537" /><trkpt lat="38.783627" lon="-92.132352" /><trkpt lat="38.783637" lon="-92.132075" /><trkpt lat="38.783717" lon="-92.131903" /><trkpt lat="38.783761" lon="-92.131586" /><trkpt lat="38.783937" lon="-92.131355" /><trkpt lat="38.784268" lon="-92.130776" /><trkpt lat="38.784307" lon="-92.130461" /><trkpt lat="38.784318" lon="-92.130239" /><trkpt lat="38.784289" lon="-92.130007" /><trkpt lat="38.784209" lon="-92.129808" /><trkpt lat="38.784123" lon="-92.129567" /><trkpt lat="38.784076" lon="-92.129313" /><trkpt lat="38.783950" lon="-92.129128" /><trkpt lat="38.783811" lon="-92.128810" /><trkpt lat="38.783735" lon="-92.128537" /><trkpt lat="38.783731" lon="-92.128434" /><trkpt lat="38.783774" lon="-92.128205" /><trkpt lat="38.783757" lon="-92.128016" /><trkpt lat="38.783760" lon="-92.127845" /><trkpt lat="38.783801" lon="-92.127691" /><trkpt lat="38.783901" lon="-92.127575" /><trkpt lat="38.783941" lon="-92.127435" /><trkpt lat="38.783990" lon="-92.127333" /><trkpt lat="38.784167" lon="-92.127210" /><trkpt lat="38.784325" lon="-92.127137" /><trkpt lat="38.784470" lon="-92.127125" /><trkpt lat="38.784637" lon="-92.127045" /><trkpt lat="38.784866" lon="-92.126903" /><trkpt lat="38.785017" lon="-92.126873" /><trkpt lat="38.785141" lon="-92.126742" /><trkpt lat="38.785280" lon="-92.126619" /><trkpt lat="38.785455" lon="-92.126544" /><trkpt lat="38.785658" lon="-92.126481" /><trkpt lat="38.785879" lon="-92.126375" /><trkpt lat="38.786004" lon="-92.126238" /><trkpt lat="38.786110" lon="-92.126056" /><trkpt lat="38.786220" lon="-92.125911" /><trkpt lat="38.786462" lon="-92.125699" /><trkpt lat="38.786535" lon="-92.125560" /><trkpt lat="38.786565" lon="-92.125340" /><trkpt lat="38.786575" lon="-92.125204" /><trkpt lat="38.786547" lon="-92.125044" /><trkpt lat="38.786539" lon="-92.124818" /><trkpt lat="38.786502" lon="-92.124607" /><trkpt lat="38.786505" lon="-92.124398" /><trkpt lat="38.786479" lon="-92.124278" /><trkpt lat="38.786398" lon="-92.124119" /><trkpt lat="38.786338" lon="-92.124009" /><trkpt lat="38.786334" lon="-92.123850" /><trkpt lat="38.786495" lon="-92.123730" /><trkpt lat="38.786857" lon="-92.123477" /><trkpt lat="38.787080" lon="-92.123360" /><trkpt lat="38.787241" lon="-92.123275" /><trkpt lat="38.787982" lon="-92.122884" /><trkpt lat="38.788782" lon="-92.122424" /><trkpt lat="38.789194" lon="-92.122178" /><trkpt lat="38.789258" lon="-92.122147" /><trkpt lat="38.789787" lon="-92.121892" /><trkpt lat="38.790151" lon="-92.121709" /><trkpt lat="38.790432" lon="-92.121577" /><trkpt lat="38.790666" lon="-92.121508" /><trkpt lat="38.790912" lon="-92.121450" /><trkpt lat="38.791169" lon="-92.121426" /><trkpt lat="38.792543" lon="-92.121364" /><trkpt lat="38.792915" lon="-92.121333" /><trkpt lat="38.793330" lon="-92.121290" /><trkpt lat="38.795493" lon="-92.121145" /><trkpt lat="38.796616" lon="-92.121075" /><trkpt lat="38.798930" lon="-92.120985" /><trkpt lat="38.799042" lon="-92.121028" /><trkpt lat="38.799102" lon="-92.121099" /><trkpt lat="38.799114" lon="-92.121236" /><trkpt lat="38.799019" lon="-92.121530" /><trkpt lat="38.798910" lon="-92.121799" /><trkpt lat="38.798844" lon="-92.122232" /><trkpt lat="38.798973" lon="-92.122919" /><trkpt lat="38.798999" lon="-92.123231" /><trkpt lat="38.799186" lon="-92.123344" /><trkpt lat="38.799349" lon="-92.123312" /><trkpt lat="38.799422" lon="-92.123222" /><trkpt lat="38.799528" lon="-92.123063" /><trkpt lat="38.799784" lon="-92.123084" /><trkpt lat="38.800007" lon="-92.123185" /><trkpt lat="38.800263" lon="-92.123196" /><trkpt lat="38.800366" lon="-92.123278" /><trkpt lat="38.800633" lon="-92.123346" /><trkpt lat="38.800950" lon="-92.123354" /><trkpt lat="38.801266" lon="-92.123508" /><trkpt lat="38.801435" lon="-92.123567" /><trkpt lat="38.801570" lon="-92.123533" /><trkpt lat="38.801653" lon="-92.123451" /><trkpt lat="38.801634" lon="-92.123226" /><trkpt lat="38.801687" lon="-92.122822" /><trkpt lat="38.801862" lon="-92.122508" /><trkpt lat="38.801974" lon="-92.122455" /><trkpt lat="38.802122" lon="-92.122370" /><trkpt lat="38.802413" lon="-92.122646" /><trkpt lat="38.802660" lon="-92.122736" /><trkpt lat="38.802971" lon="-92.123150" /><trkpt lat="38.803060" lon="-92.123516" /><trkpt lat="38.803136" lon="-92.123744" /><trkpt lat="38.803071" lon="-92.124005" /><trkpt lat="38.802887" lon="-92.124368" /><trkpt lat="38.802926" lon="-92.124533" /><trkpt lat="38.803072" lon="-92.124573" /><trkpt lat="38.803047" lon="-92.124855" /><trkpt lat="38.803129" lon="-92.124931" /><trkpt lat="38.803245" lon="-92.124946" /><trkpt lat="38.803440" lon="-92.124815" /><trkpt lat="38.803691" lon="-92.124408" /><trkpt lat="38.803783" lon="-92.124099" /><trkpt lat="38.803923" lon="-92.124015" /><trkpt lat="38.804118" lon="-92.124053" /><trkpt lat="38.804225" lon="-92.124199" /><trkpt lat="38.804447" lon="-92.124207" /><trkpt lat="38.804656" lon="-92.124069" /><trkpt lat="38.805068" lon="-92.124273" /><trkpt lat="38.805429" lon="-92.124500" /><trkpt lat="38.805581" lon="-92.124492" /><trkpt lat="38.805708" lon="-92.124622" /><trkpt lat="38.805962" lon="-92.124712" /><trkpt lat="38.806144" lon="-92.124886" /><trkpt lat="38.806361" lon="-92.124843" /><trkpt lat="38.806702" lon="-92.124788" /><trkpt lat="38.806925" lon="-92.124842" /><trkpt lat="38.807039" lon="-92.124760" /><trkpt lat="38.807894" lon="-92.124777" /><trkpt lat="38.808026" lon="-92.124751" /><trkpt lat="38.808566" lon="-92.124781" /><trkpt lat="38.808662" lon="-92.124984" /><trkpt lat="38.808676" lon="-92.125242" /><trkpt lat="38.808630" lon="-92.125670" /><trkpt lat="38.808691" lon="-92.125800" /><trkpt lat="38.809066" lon="-92.126102" /><trkpt lat="38.809192" lon="-92.126175" /><trkpt lat="38.809243" lon="-92.127883" /><trkpt lat="38.809291" lon="-92.129998" /><trkpt lat="38.809374" lon="-92.130394" /><trkpt lat="38.809317" lon="-92.130686" /><trkpt lat="38.809318" lon="-92.131382" /><trkpt lat="38.809428" lon="-92.134483" /><trkpt lat="38.809353" lon="-92.135121" /><trkpt lat="38.809432" lon="-92.135546" /><trkpt lat="38.809490" lon="-92.138837" /><trkpt lat="38.809476" lon="-92.139382" /><trkpt lat="38.809680" lon="-92.139422" /><trkpt lat="38.809816" lon="-92.139611" /><trkpt lat="38.810008" lon="-92.139675" /><trkpt lat="38.810145" lon="-92.139778" /><trkpt lat="38.810303" lon="-92.139743" /><trkpt lat="38.810438" lon="-92.139697" /><trkpt lat="38.810614" lon="-92.139617" /><trkpt lat="38.810735" lon="-92.139545" /><trkpt lat="38.810939" lon="-92.139356" /><trkpt lat="38.811055" lon="-92.139160" /><trkpt lat="38.811112" lon="-92.138927" /><trkpt lat="38.811123" lon="-92.138712" /><trkpt lat="38.811140" lon="-92.138516" /><trkpt lat="38.811151" lon="-92.138388" /><trkpt lat="38.811126" lon="-92.138254" /><trkpt lat="38.811126" lon="-92.138104" /><trkpt lat="38.811010" lon="-92.137610" /><trkpt lat="38.811029" lon="-92.137446" /><trkpt lat="38.810976" lon="-92.137224" /><trkpt lat="38.810881" lon="-92.137208" /><trkpt lat="38.810940" lon="-92.137021" /><trkpt lat="38.810961" lon="-92.136773" /><trkpt lat="38.811051" lon="-92.136708" /><trkpt lat="38.811067" lon="-92.136395" /><trkpt lat="38.811124" lon="-92.136214" /><trkpt lat="38.811116" lon="-92.135977" /><trkpt lat="38.811253" lon="-92.135436" /><trkpt lat="38.811228" lon="-92.135247" /><trkpt lat="38.811278" lon="-92.134948" /><trkpt lat="38.811287" lon="-92.134739" /><trkpt lat="38.811350" lon="-92.134579" /><trkpt lat="38.811429" lon="-92.134499" /><trkpt lat="38.811565" lon="-92.134415" /><trkpt lat="38.811696" lon="-92.134218" /><trkpt lat="38.811724" lon="-92.134135" /><trkpt lat="38.811713" lon="-92.134073" /><trkpt lat="38.811718" lon="-92.133953" /><trkpt lat="38.811676" lon="-92.133822" /><trkpt lat="38.811735" lon="-92.133785" /><trkpt lat="38.811798" lon="-92.133771" /><trkpt lat="38.811957" lon="-92.133716" /><trkpt lat="38.812095" lon="-92.133694" /><trkpt lat="38.812291" lon="-92.133698" /><trkpt lat="38.812407" lon="-92.133694" /><trkpt lat="38.812521" lon="-92.133687" /><trkpt lat="38.812620" lon="-92.133527" /><trkpt lat="38.812605" lon="-92.133354" /><trkpt lat="38.812600" lon="-92.133127" /><trkpt lat="38.812622" lon="-92.133006" /><trkpt lat="38.812731" lon="-92.132996" /><trkpt lat="38.812796" lon="-92.132977" /><trkpt lat="38.812892" lon="-92.132959" /><trkpt lat="38.812945" lon="-92.132883" /><trkpt lat="38.812998" lon="-92.132839" /><trkpt lat="38.813071" lon="-92.132817" /><trkpt lat="38.813128" lon="-92.132800" /><trkpt lat="38.813239" lon="-92.132730" /><trkpt lat="38.813332" lon="-92.132694" /><trkpt lat="38.813407" lon="-92.132599" /><trkpt lat="38.813545" lon="-92.132582" /><trkpt lat="38.813671" lon="-92.132609" /><trkpt lat="38.813819" lon="-92.132661" /><trkpt lat="38.813927" lon="-92.132592" /><trkpt lat="38.814006" lon="-92.132519" /><trkpt lat="38.814114" lon="-92.132493" /><trkpt lat="38.814242" lon="-92.132359" /><trkpt lat="38.814275" lon="-92.132238" /><trkpt lat="38.814320" lon="-92.132036" /><trkpt lat="38.814438" lon="-92.131983" /><trkpt lat="38.814593" lon="-92.131966" /><trkpt lat="38.814690" lon="-92.131966" /><trkpt lat="38.814797" lon="-92.131933" /><trkpt lat="38.814897" lon="-92.131944" /><trkpt lat="38.815033" lon="-92.131955" /><trkpt lat="38.815194" lon="-92.131933" /><trkpt lat="38.815373" lon="-92.131911" /><trkpt lat="38.815515" lon="-92.131868" /><trkpt lat="38.815682" lon="-92.131889" /><trkpt lat="38.815836" lon="-92.131855" /><trkpt lat="38.815934" lon="-92.131860" /><trkpt lat="38.816025" lon="-92.131889" /><trkpt lat="38.816054" lon="-92.131871" /><trkpt lat="38.816093" lon="-92.131929" /><trkpt lat="38.816184" lon="-92.131900" /><trkpt lat="38.816249" lon="-92.131930" /><trkpt lat="38.816359" lon="-92.132002" /><trkpt lat="38.816450" lon="-92.132079" /><trkpt lat="38.816507" lon="-92.132104" /><trkpt lat="38.816623" lon="-92.132181" /><trkpt lat="38.816717" lon="-92.132272" /><trkpt lat="38.816779" lon="-92.132341" /><trkpt lat="38.816833" lon="-92.132370" /><trkpt lat="38.816901" lon="-92.132424" /><trkpt lat="38.816989" lon="-92.132560" /><trkpt lat="38.817137" lon="-92.132597" /><trkpt lat="38.817211" lon="-92.132526" /><trkpt lat="38.817310" lon="-92.132469" /><trkpt lat="38.817401" lon="-92.132464" /><trkpt lat="38.817518" lon="-92.132523" /><trkpt lat="38.817594" lon="-92.132608" /><trkpt lat="38.817663" lon="-92.132697" /><trkpt lat="38.817821" lon="-92.132753" /><trkpt lat="38.817905" lon="-92.132785" /><trkpt lat="38.817957" lon="-92.132882" /><trkpt lat="38.817954" lon="-92.132966" /><trkpt lat="38.817999" lon="-92.133064" /><trkpt lat="38.818051" lon="-92.133083" /><trkpt lat="38.818252" lon="-92.133156" /><trkpt lat="38.818350" lon="-92.133257" /><trkpt lat="38.818413" lon="-92.133287" /><trkpt lat="38.818430" lon="-92.133338" /><trkpt lat="38.818409" lon="-92.133410" /><trkpt lat="38.818369" lon="-92.133459" /><trkpt lat="38.818325" lon="-92.133558" /><trkpt lat="38.818264" lon="-92.133646" /><trkpt lat="38.818196" lon="-92.133708" /><trkpt lat="38.818168" lon="-92.133751" /><trkpt lat="38.818168" lon="-92.133837" /><trkpt lat="38.818179" lon="-92.133960" /><trkpt lat="38.818170" lon="-92.134073" /><trkpt lat="38.818187" lon="-92.134180" /><trkpt lat="38.818219" lon="-92.134312" /><trkpt lat="38.818204" lon="-92.134456" /><trkpt lat="38.818206" lon="-92.134593" /><trkpt lat="38.818189" lon="-92.134821" /><trkpt lat="38.818225" lon="-92.134939" /><trkpt lat="38.818223" lon="-92.135060" /><trkpt lat="38.818173" lon="-92.135264" /><trkpt lat="38.818115" lon="-92.135367" /><trkpt lat="38.818060" lon="-92.135406" /><trkpt lat="38.817972" lon="-92.135411" /><trkpt lat="38.817855" lon="-92.135358" /><trkpt lat="38.817742" lon="-92.135344" /><trkpt lat="38.817573" lon="-92.135385" /><trkpt lat="38.817485" lon="-92.135422" /><trkpt lat="38.817362" lon="-92.135604" /><trkpt lat="38.817347" lon="-92.135714" /><trkpt lat="38.817324" lon="-92.135846" /><trkpt lat="38.817349" lon="-92.135975" /><trkpt lat="38.817416" lon="-92.136071" /><trkpt lat="38.817516" lon="-92.136138" /><trkpt lat="38.817581" lon="-92.136337" /><trkpt lat="38.817589" lon="-92.136444" /><trkpt lat="38.817637" lon="-92.136538" /><trkpt lat="38.817719" lon="-92.136616" /><trkpt lat="38.817719" lon="-92.136739" /><trkpt lat="38.817750" lon="-92.136972" /><trkpt lat="38.817870" lon="-92.137174" /><trkpt lat="38.817930" lon="-92.137385" /><trkpt lat="38.818089" lon="-92.137672" /><trkpt lat="38.818129" lon="-92.137817" /><trkpt lat="38.818162" lon="-92.137973" /><trkpt lat="38.818202" lon="-92.138061" /><trkpt lat="38.818241" lon="-92.138135" /><trkpt lat="38.818235" lon="-92.138241" /><trkpt lat="38.818250" lon="-92.138333" /><trkpt lat="38.818339" lon="-92.138390" /><trkpt lat="38.818401" lon="-92.138492" /><trkpt lat="38.818528" lon="-92.138521" /><trkpt lat="38.818637" lon="-92.138575" /><trkpt lat="38.818887" lon="-92.138719" /><trkpt lat="38.819114" lon="-92.138834" /><trkpt lat="38.819287" lon="-92.138974" /><trkpt lat="38.819412" lon="-92.139102" /><trkpt lat="38.819441" lon="-92.139288" /><trkpt lat="38.819452" lon="-92.139399" /><trkpt lat="38.819441" lon="-92.139466" /><trkpt lat="38.819384" lon="-92.139607" /><trkpt lat="38.819233" lon="-92.139778" /><trkpt lat="38.819111" lon="-92.139875" /><trkpt lat="38.818990" lon="-92.139956" /><trkpt lat="38.818828" lon="-92.140023" /><trkpt lat="38.818660" lon="-92.140150" /><trkpt lat="38.818590" lon="-92.140276" /><trkpt lat="38.818480" lon="-92.140491" /><trkpt lat="38.818408" lon="-92.140540" /><trkpt lat="38.818313" lon="-92.140574" /><trkpt lat="38.818261" lon="-92.140662" /><trkpt lat="38.818214" lon="-92.140774" /><trkpt lat="38.818189" lon="-92.140958" /><trkpt lat="38.818216" lon="-92.141220" /><trkpt lat="38.818272" lon="-92.141398" /><trkpt lat="38.818330" lon="-92.141554" /><trkpt lat="38.818333" lon="-92.141701" /><trkpt lat="38.818436" lon="-92.141851" /><trkpt lat="38.818396" lon="-92.142020" /><trkpt lat="38.818388" lon="-92.142214" /><trkpt lat="38.818388" lon="-92.142329" /><trkpt lat="38.818397" lon="-92.142432" /><trkpt lat="38.818350" lon="-92.142669" /><trkpt lat="38.818355" lon="-92.142919" /><trkpt lat="38.818329" lon="-92.143085" /><trkpt lat="38.818279" lon="-92.143230" /><trkpt lat="38.818179" lon="-92.143367" /><trkpt lat="38.817964" lon="-92.143620" /><trkpt lat="38.817918" lon="-92.143708" /><trkpt lat="38.817902" lon="-92.143812" /><trkpt lat="38.817911" lon="-92.143861" /><trkpt lat="38.818076" lon="-92.144144" /></trkseg></trk>
<trk><name>Day 2: Rutherford Bridge to Pine Ridge (9.1 mi)</name><trkseg><trkpt lat="38.818076" lon="-92.144144" /><trkpt lat="38.817911" lon="-92.143861" /><trkpt lat="38.817902" lon="-92.143812" /><trkpt lat="38.817918" lon="-92.143708" /><trkpt lat="38.817964" lon="-92.143620" /><trkpt lat="38.818179" lon="-92.143367" /><trkpt lat="38.818279" lon="-92.143230" /><trkpt lat="38.818329" lon="-92.143085" /><trkpt lat="38.818355" lon="-92.142919" /><trkpt lat="38.818350" lon="-92.142669" /><trkpt lat="38.818397" lon="-92.142432" /><trkpt lat="38.818388" lon="-92.142329" /><trkpt lat="38.818388" lon="-92.142214" /><trkpt lat="38.818396" lon="-92.142020" /><trkpt lat="38.818436" lon="-92.141851" /><trkpt lat="38.818483" lon="-92.141767" /><trkpt lat="38.818554" lon="-92.141655" /><trkpt lat="38.818628" lon="-92.141567" /><trkpt lat="38.818826" lon="-92.141401" /><trkpt lat="38.819224" lon="-92.141088" /><trkpt lat="38.819652" lon="-92.140785" /><trkpt lat="38.820090" lon="-92.140468" /><trkpt lat="38.820179" lon="-92.140368" /><trkpt lat="38.820257" lon="-92.140217" /><trkpt lat="38.820299" lon="-92.140052" /><trkpt lat="38.820333" lon="-92.139817" /><trkpt lat="38.820411" lon="-92.139600" /><trkpt lat="38.820552" lon="-92.139298" /><trkpt lat="38.820566" lon="-92.138630" /><trkpt lat="38.820570" lon="-92.138441" /><trkpt lat="38.820580" lon="-92.138163" /><trkpt lat="38.820636" lon="-92.138024" /><trkpt lat="38.820751" lon="-92.137948" /><trkpt lat="38.820948" lon="-92.137923" /><trkpt lat="38.821094" lon="-92.137949" /><trkpt lat="38.821176" lon="-92.137979" /><trkpt lat="38.821279" lon="-92.137946" /><trkpt lat="38.821413" lon="-92.137936" /><trkpt lat="38.821561" lon="-92.137904" /><trkpt lat="38.824090" lon="-92.137820" /><trkpt lat="38.824090" lon="-92.137792" /><trkpt lat="38.824092" lon="-92.137541" /><trkpt lat="38.824101" lon="-92.137191" /><trkpt lat="38.824079" lon="-92.136532" /><trkpt lat="38.824140" lon="-92.136126" /><trkpt lat="38.824134" lon="-92.135669" /><trkpt lat="38.824115" lon="-92.135530" /><trkpt lat="38.824087" lon="-92.135327" /><trkpt lat="38.824091" lon="-92.134842" /><trkpt lat="38.824087" lon="-92.134648" /><trkpt lat="38.824114" lon="-92.134028" /><trkpt lat="38.824101" lon="-92.133838" /><trkpt lat="38.824071" lon="-92.133525" /><trkpt lat="38.824028" lon="-92.133218" /><trkpt lat="38.824035" lon="-92.132715" /><trkpt lat="38.823997" lon="-92.132214" /><trkpt lat="38.824001" lon="-92.131791" /><trkpt lat="38.824001" lon="-92.131159" /><trkpt lat="38.823967" lon="-92.130831" /><trkpt lat="38.823983" lon="-92.130533" /><trkpt lat="38.823947" lon="-92.130113" /><trkpt lat="38.823960" lon="-92.130026" /><trkpt lat="38.824036" lon="-92.129887" /><trkpt lat="38.824148" lon="-92.129841" /><trkpt lat="38.824231" lon="-92.129763" /><trkpt lat="38.824209" lon="-92.129576" /><trkpt lat="38.824074" lon="-92.129069" /><trkpt lat="38.824033" lon="-92.128743" /><trkpt lat="38.823907" lon="-92.128507" /><trkpt lat="38.823720" lon="-92.128410" /><trkpt lat="38.823594" lon="-92.128519" /><trkpt lat="38.823425" lon="-92.128609" /><trkpt lat="38.823244" lon="-92.128540" /><trkpt lat="38.822994" lon="-92.128657" /><trkpt lat="38.822736" lon="-92.128801" /><trkpt lat="38.822381" lon="-92.128837" /><trkpt lat="38.821665" lon="-92.128837" /><trkpt lat="38.820883" lon="-92.128871" /><trkpt lat="38.820680" lon="-92.128939" /><trkpt lat="38.820503" lon="-92.129116" /><trkpt lat="38.820363" lon="-92.129349" /><trkpt lat="38.820254" lon="-92.129470" /><trkpt lat="38.820129" lon="-92.129441" /><trkpt lat="38.820068" lon="-92.129245" /><trkpt lat="38.820067" lon="-92.129042" /><trkpt lat="38.820198" lon="-92.128785" /><trkpt lat="38.820167" lon="-92.128527" /><trkpt lat="38.820280" lon="-92.128354" /><trkpt lat="38.820328" lon="-92.128092" /><trkpt lat="38.820290" lon="-92.127876" /><trkpt lat="38.820141" lon="-92.127667" /><trkpt lat="38.820025" lon="-92.127506" /><trkpt lat="38.819832" lon="-92.127154" /><trkpt lat="38.819473" lon="-92.126714" /><trkpt lat="38.819377" lon="-92.126227" /><trkpt lat="38.819035" lon="-92.125416" /><trkpt lat="38.818944" lon="-92.124947" /><trkpt lat="38.818870" lon="-92.124100" /><trkpt lat="38.818772" lon="-92.123347" /><trkpt lat="38.818667" lon="-92.122248" /><trkpt lat="38.818503" lon="-92.121308" /><trkpt lat="38.818156" lon="-92.120780" /><trkpt lat="38.817879" lon="-92.120538" /><trkpt lat="38.817736" lon="-92.120584" /><trkpt lat="38.817537" lon="-92.120507" /><trkpt lat="38.817296" lon="-92.120247" /><trkpt lat="38.816987" lon="-92.119744" /><trkpt lat="38.816981" lon="-92.119385" /><trkpt lat="38.816908" lon="-92.119095" /><trkpt lat="38.816593" lon="-92.118764" /><trkpt lat="38.816220" lon="-92.118216" /><trkpt lat="38.815947" lon="-92.117751" /><trkpt lat="38.815837" lon="-92.117270" /><trkpt lat="38.815450" lon="-92.116601" /><trkpt lat="38.815313" lon="-92.115894" /><trkpt lat="38.815204" lon="-92.115105" /><trkpt lat="38.814966" lon="-92.114407" /><trkpt lat="38.814893" lon="-92.113773" /><trkpt lat="38.814683" lon="-92.113229" /><trkpt lat="38.814529" lon="-92.112404" /><trkpt lat="38.814272" lon="-92.111895" /><trkpt lat="38.814197" lon="-92.111711" /><trkpt lat="38.814145" lon="-92.111589" /><trkpt lat="38.814123" lon="-92.111532" /><trkpt lat="38.813406" lon="-92.111751" /><trkpt lat="38.812590" lon="-92.112057" /><trkpt lat="38.812504" lon="-92.112099" /><trkpt lat="38.812406" lon="-92.112177" /><trkpt lat="38.812350" lon="-92.112255" /><trkpt lat="38.812312" lon="-92.112416" /><trkpt lat="38.812308" lon="-92.112669" /><trkpt lat="38.812270" lon="-92.112798" /><trkpt lat="38.812188" lon="-92.112860" /><trkpt lat="38.812085" lon="-92.112904" /><trkpt lat="38.811805" lon="-92.112963" /><trkpt lat="38.811593" lon="-92.113030" /><trkpt lat="38.811090" lon="-92.113223" /><trkpt lat="38.811058" lon="-92.113453" /><trkpt lat="38.810977" lon="-92.113600" /><trkpt lat="38.810817" lon="-92.113669" /><trkpt lat="38.810691" lon="-92.113777" /><trkpt lat="38.810523" lon="-92.113822" /><trkpt lat="38.810429" lon="-92.113962" /><trkpt lat="38.810124" lon="-92.114109" /><trkpt lat="38.810037" lon="-92.114217" /><trkpt lat="38.809961" lon="-92.114433" /><trkpt lat="38.809804" lon="-92.114581" /><trkpt lat="38.809727" lon="-92.114776" /><trkpt lat="38.809694" lon="-92.114964" /><trkpt lat="38.809797" lon="-92.115260" /><trkpt lat="38.809779" lon="-92.115531" /><trkpt lat="38.809541" lon="-92.115812" /><trkpt lat="38.809372" lon="-92.116175" /><trkpt lat="38.809120" lon="-92.116398" /><trkpt lat="38.809001" lon="-92.116555" /><trkpt lat="38.809089" lon="-92.117031" /><trkpt lat="38.808997" lon="-92.117540" /><trkpt lat="38.809016" lon="-92.118857" /><trkpt lat="38.809092" lon="-92.120898" /><trkpt lat="38.809212" lon="-92.121329" /><trkpt lat="38.809218" lon="-92.122411" /><trkpt lat="38.809130" lon="-92.122646" /><trkpt lat="38.809155" lon="-92.123346" /><trkpt lat="38.809187" lon="-92.124630" /><trkpt lat="38.809200" lon="-92.125624" /><trkpt lat="38.809192" lon="-92.126175" /><trkpt lat="38.809066" lon="-92.126102" /><trkpt lat="38.808691" lon="-92.125800" /><trkpt lat="38.808630" lon="-92.125670" /><trkpt lat="38.808676" lon="-92.125242" /><trkpt lat="38.808662" lon="-92.124984" /><trkpt lat="38.808566" lon="-92.124781" /><trkpt lat="38.808026" lon="-92.124751" /><trkpt lat="38.807894" lon="-92.124777" /><trkpt lat="38.807039" lon="-92.124760" /><trkpt lat="38.806925" lon="-92.124842" /><trkpt lat="38.806702" lon="-92.124788" /><trkpt lat="38.806361" lon="-92.124843" /><trkpt lat="38.806144" lon="-92.124886" /><trkpt lat="38.805962" lon="-92.124712" /><trkpt lat="38.805708" lon="-92.124622" /><trkpt lat="38.805581" lon="-92.124492" /><trkpt lat="38.805429" lon="-92.124500" /><trkpt lat="38.805068" lon="-92.124273" /><trkpt lat="38.804656" lon="-92.124069" /><trkpt lat="38.804447" lon="-92.124207" /><trkpt lat="38.804225" lon="-92.124199" /><trkpt lat="38.804118" lon="-92.124053" /><trkpt lat="38.803923" lon="-92.124015" /><trkpt lat="38.803783" lon="-92.124099" /><trkpt lat="38.803691" lon="-92.124408" /><trkpt lat="38.803440" lon="-92.124815" /><trkpt lat="38.803245" lon="-92.124946" /><trkpt lat="38.803129" lon="-92.124931" /><trkpt lat="38.803047" lon="-92.124855" /><trkpt lat="38.803072" lon="-92.124573" /><trkpt lat="38.802926" lon="-92.124533" /><trkpt lat="38.802887" lon="-92.124368" /><trkpt lat="38.803071" lon="-92.124005" /><trkpt lat="38.803136" lon="-92.123744" /><trkpt lat="38.803060" lon="-92.123516" /><trkpt lat="38.802971" lon="-92.123150" /><trkpt lat="38.802660" lon="-92.122736" /><trkpt lat="38.802413" lon="-92.122646" /><trkpt lat="38.802122" lon="-92.122370" /><trkpt lat="38.801974" lon="-92.122455" /><trkpt lat="38.801862" lon="-92.122508" /><trkpt lat="38.801687" lon="-92.122822" /><trkpt lat="38.801634" lon="-92.123226" /><trkpt lat="38.801653" lon="-92.123451" /><trkpt lat="38.801570" lon="-92.123533" /><trkpt lat="38.801435" lon="-92.123567" /><trkpt lat="38.801266" lon="-92.123508" /><trkpt lat="38.800950" lon="-92.123354" /><trkpt lat="38.800633" lon="-92.123346" /><trkpt lat="38.800366" lon="-92.123278" /><trkpt lat="38.800263" lon="-92.123196" /><trkpt lat="38.800007" lon="-92.123185" /><trkpt lat="38.799784" lon="-92.123084" /><trkpt lat="38.799528" lon="-92.123063" /><trkpt lat="38.799422" lon="-92.123222" /><trkpt lat="38.799349" lon="-92.123312" /><trkpt lat="38.799186" lon="-92.123344" /><trkpt lat="38.798999" lon="-92.123231" /><trkpt lat="38.798973" lon="-92.122919" /><trkpt lat="38.798844" lon="-92.122232" /><trkpt lat="38.798910" lon="-92.121799" /><trkpt lat="38.799019" lon="-92.121530" /><trkpt lat="38.799114" lon="-92.121236" /><trkpt lat="38.799102" lon="-92.121099" /><trkpt lat="38.799042" lon="-92.121028" /><trkpt lat="38.798930" lon="-92.120985" /><trkpt lat="38.796616" lon="-92.121075" /><trkpt lat="38.795493" lon="-92.121145" /><trkpt lat="38.793330" lon="-92.121290" /><trkpt lat="38.792915" lon="-92.121333" /><trkpt lat="38.792543" lon="-92.121364" /><trkpt lat="38.791169" lon="-92.121426" /><trkpt lat="38.790912" lon="-92.121450" /><trkpt lat="38.790666" lon="-92.121508" /><trkpt lat="38.790432" lon="-92.121577" /><trkpt lat="38.790151" lon="-92.121709" /><trkpt lat="38.789787" lon="-92.121892" /><trkpt lat="38.789258" lon="-92.122147" /><trkpt lat="38.789194" lon="-92.122178" /><trkpt lat="38.788782" lon="-92.122424" /><trkpt lat="38.787982" lon="-92.122884" /><trkpt lat="38.787241" lon="-92.123275" /><trkpt lat="38.787080" lon="-92.123360" /><trkpt lat="38.786857" lon="-92.123477" /><trkpt lat="38.786495" lon="-92.123730" /><trkpt lat="38.786334" lon="-92.123850" /><trkpt lat="38.786338" lon="-92.124009" /><trkpt lat="38.786398" lon="-92.124119" /><trkpt lat="38.786479" lon="-92.124278" /><trkpt lat="38.786505" lon="-92.124398" /><trkpt lat="38.786502" lon="-92.124607" /><trkpt lat="38.786539" lon="-92.124818" /><trkpt lat="38.786547" lon="-92.125044" /><trkpt lat="38.786575" lon="-92.125204" /><trkpt lat="38.786565" lon="-92.125340" /><trkpt lat="38.786535" lon="-92.125560" /><trkpt lat="38.786462" lon="-92.125699" /><trkpt lat="38.786220" lon="-92.125911" /><trkpt lat="38.786110" lon="-92.126056" /><trkpt lat="38.786004" lon="-92.126238" /><trkpt lat="38.785879" lon="-92.126375" /><trkpt lat="38.785658" lon="-92.126481" /><trkpt lat="38.785455" lon="-92.126544" /><trkpt lat="38.785280" lon="-92.126619" /><trkpt lat="38.785141" lon="-92.126742" /><trkpt lat="38.785017" lon="-92.126873" /><trkpt lat="38.784866" lon="-92.126903" /><trkpt lat="38.784637" lon="-92.127045" /><trkpt lat="38.784470" lon="-92.127125" /><trkpt lat="38.784325" lon="-92.127137" /><trkpt lat="38.784167" lon="-92.127210" /><trkpt lat="38.783990" lon="-92.127333" /><trkpt lat="38.783941" lon="-92.127435" /><trkpt lat="38.783901" lon="-92.127575" /><trkpt lat="38.783801" lon="-92.127691" /><trkpt lat="38.783760" lon="-92.127845" /><trkpt lat="38.783757" lon="-92.128016" /><trkpt lat="38.783774" lon="-92.128205" /><trkpt lat="38.783731" lon="-92.128434" /><trkpt lat="38.783735" lon="-92.128537" /><trkpt lat="38.783811" lon="-92.128810" /><trkpt lat="38.783950" lon="-92.129128" /><trkpt lat="38.784076" lon="-92.129313" /><trkpt lat="38.784123" lon="-92.129567" /><trkpt lat="38.784209" lon="-92.129808" /><trkpt lat="38.784289" lon="-92.130007" /><trkpt lat="38.784318" lon="-92.130239" /><trkpt lat="38.784307" lon="-92.130461" /><trkpt lat="38.784268" lon="-92.130776" /><trkpt lat="38.783937" lon="-92.131355" /><trkpt lat="38.783761" lon="-92.131586" /><trkpt lat="38.783717" lon="-92.131903" /><trkpt lat="38.783637" lon="-92.132075" /><trkpt lat="38.783627" lon="-92.132352" /><trkpt lat="38.783744" lon="-92.132537" /><trkpt lat="38.783761" lon="-92.132726" /><trkpt lat="38.783723" lon="-92.132916" /><trkpt lat="38.783648" lon="-92.133115" /><trkpt lat="38.783627" lon="-92.133317" /><trkpt lat="38.783648" lon="-92.133562" /><trkpt lat="38.783669" lon="-92.133747" /><trkpt lat="38.783662" lon="-92.133933" /><trkpt lat="38.783581" lon="-92.134113" /><trkpt lat="38.783549" lon="-92.134247" /><trkpt lat="38.783602" lon="-92.134465" /><trkpt lat="38.783579" lon="-92.134656" /><trkpt lat="38.783597" lon="-92.134820" /><trkpt lat="38.783608" lon="-92.135108" /><trkpt lat="38.783591" lon="-92.135406" /><trkpt lat="38.783556" lon="-92.135640" /><trkpt lat="38.783562" lon="-92.135812" /><trkpt lat="38.783465" lon="-92.136086" /><trkpt lat="38.783313" lon="-92.136285" /><trkpt lat="38.782887" lon="-92.136618" /><trkpt lat="38.782707" lon="-92.136686" /><trkpt lat="38.782466" lon="-92.136718" /><trkpt lat="38.782202" lon="-92.136869" /><trkpt lat="38.782059" lon="-92.136973" /><trkpt lat="38.781812" lon="-92.136963" /><trkpt lat="38.781667" lon="-92.136998" /><trkpt lat="38.781602" lon="-92.137046" /><trkpt lat="38.781542" lon="-92.137129" /><trkpt lat="38.781472" lon="-92.137377" /><trkpt lat="38.781215" lon="-92.137707" /><trkpt lat="38.781085" lon="-92.137960" /><trkpt lat="38.780986" lon="-92.138180" /><trkpt lat="38.780917" lon="-92.138248" /><trkpt lat="38.780827" lon="-92.138317" /><trkpt lat="38.780613" lon="-92.138385" /><trkpt lat="38.780452" lon="-92.138487" /><trkpt lat="38.780337" lon="-92.138616" /><trkpt lat="38.780043" lon="-92.138745" /><trkpt lat="38.779901" lon="-92.138767" /><trkpt lat="38.779697" lon="-92.138859" /><trkpt lat="38.779260" lon="-92.139247" /><trkpt lat="38.779106" lon="-92.139272" /><trkpt lat="38.778822" lon="-92.139515" /><trkpt lat="38.778601" lon="-92.139801" /><trkpt lat="38.778483" lon="-92.140039" /><trkpt lat="38.778345" lon="-92.140118" /><trkpt lat="38.778107" lon="-92.140073" /><trkpt lat="38.777722" lon="-92.139996" /><trkpt lat="38.777368" lon="-92.140073" /><trkpt lat="38.777186" lon="-92.140129" /><trkpt lat="38.776988" lon="-92.140270" /><trkpt lat="38.776733" lon="-92.140646" /><trkpt lat="38.776454" lon="-92.141019" /><trkpt lat="38.776398" lon="-92.141360" /><trkpt lat="38.776206" lon="-92.141711" /><trkpt lat="38.776044" lon="-92.141897" /><trkpt lat="38.776005" lon="-92.142202" /><trkpt lat="38.775885" lon="-92.142441" /><trkpt lat="38.775799" lon="-92.142495" /><trkpt lat="38.775581" lon="-92.142444" /><trkpt lat="38.775468" lon="-92.142698" /><trkpt lat="38.775376" lon="-92.143012" /><trkpt lat="38.774949" lon="-92.143778" /><trkpt lat="38.774781" lon="-92.144101" /><trkpt lat="38.774701" lon="-92.144308" /><trkpt lat="38.774671" lon="-92.144412" /><trkpt lat="38.774537" lon="-92.144666" /><trkpt lat="38.774407" lon="-92.144924" /><trkpt lat="38.774281" lon="-92.145027" /><trkpt lat="38.774188" lon="-92.145040" /><trkpt lat="38.774043" lon="-92.145070" /><trkpt lat="38.773990" lon="-92.145020" /><trkpt lat="38.773994" lon="-92.144916" /><trkpt lat="38.774184" lon="-92.144539" /><trkpt lat="38.774251" lon="-92.144369" /><trkpt lat="38.774257" lon="-92.144311" /><trkpt lat="38.774205" lon="-92.144181" /><trkpt lat="38.774243" lon="-92.143972" /><trkpt lat="38.774228" lon="-92.143905" /><trkpt lat="38.774160" lon="-92.143963" /><trkpt lat="38.774029" lon="-92.144182" /><trkpt lat="38.773759" lon="-92.144644" /><trkpt lat="38.773325" lon="-92.145146" /><trkpt lat="38.773020" lon="-92.145407" /><trkpt lat="38.772585" lon="-92.145582" /><trkpt lat="38.772396" lon="-92.145591" /><trkpt lat="38.772303" lon="-92.145440" /><trkpt lat="38.772267" lon="-92.145271" /><trkpt lat="38.772332" lon="-92.144843" /><trkpt lat="38.772292" lon="-92.144551" /><trkpt lat="38.772137" lon="-92.144168" /><trkpt lat="38.771970" lon="-92.143920" /><trkpt lat="38.771759" lon="-92.143948" /><trkpt lat="38.771413" lon="-92.143953" /><trkpt lat="38.771051" lon="-92.143959" /><trkpt lat="38.770784" lon="-92.143895" /><trkpt lat="38.770563" lon="-92.143877" /><trkpt lat="38.770453" lon="-92.143969" /><trkpt lat="38.770358" lon="-92.144152" /><trkpt lat="38.770343" lon="-92.144432" /><trkpt lat="38.770450" lon="-92.144662" /><trkpt lat="38.770391" lon="-92.144820" /><trkpt lat="38.770247" lon="-92.144944" /><trkpt lat="38.770189" lon="-92.145171" /><trkpt lat="38.770122" lon="-92.145321" /><trkpt lat="38.770022" lon="-92.145361" /><trkpt lat="38.769846" lon="-92.145239" /><trkpt lat="38.769777" lon="-92.145048" /><trkpt lat="38.769777" lon="-92.144864" /><trkpt lat="38.769701" lon="-92.144800" /><trkpt lat="38.769617" lon="-92.144837" /><trkpt lat="38.769520" lon="-92.144994" /><trkpt lat="38.769320" lon="-92.145382" /><trkpt lat="38.769199" lon="-92.145527" /><trkpt lat="38.769052" lon="-92.145535" /><trkpt lat="38.768934" lon="-92.145444" /><trkpt lat="38.768775" lon="-92.145165" /><trkpt lat="38.768545" lon="-92.144565" /><trkpt lat="38.768122" lon="-92.144202" /><trkpt lat="38.767983" lon="-92.143907" /><trkpt lat="38.767878" lon="-92.143715" /><trkpt lat="38.767720" lon="-92.143656" /><trkpt lat="38.767497" lon="-92.143735" /><trkpt lat="38.767373" lon="-92.143955" /><trkpt lat="38.767173" lon="-92.144238" /><trkpt lat="38.767111" lon="-92.144291" /><trkpt lat="38.767039" lon="-92.144275" /><trkpt lat="38.766953" lon="-92.144200" /><trkpt lat="38.766800" lon="-92.144025" /><trkpt lat="38.766705" lon="-92.143913" /><trkpt lat="38.766596" lon="-92.143862" /><trkpt lat="38.766491" lon="-92.143892" /><trkpt lat="38.766325" lon="-92.143955" /><trkpt lat="38.766114" lon="-92.144131" /><trkpt lat="38.765794" lon="-92.144043" /><trkpt lat="38.765634" lon="-92.144082" /><trkpt lat="38.765517" lon="-92.144060" /><trkpt lat="38.765441" lon="-92.143984" /><trkpt lat="38.765328" lon="-92.143928" /><trkpt lat="38.765201" lon="-92.143971" /><trkpt lat="38.765128" lon="-92.144159" /><trkpt lat="38.765088" lon="-92.144184" /><trkpt lat="38.765015" lon="-92.144154" /><trkpt lat="38.764968" lon="-92.144056" /><trkpt lat="38.764872" lon="-92.143966" /><trkpt lat="38.764679" lon="-92.143954" /><trkpt lat="38.764676" lon="-92.143868" /><trkpt lat="38.764629" lon="-92.143710" /><trkpt lat="38.764496" lon="-92.143595" /><trkpt lat="38.764519" lon="-92.143480" /><trkpt lat="38.764539" lon="-92.143318" /><trkpt lat="38.764463" lon="-92.143237" /><trkpt lat="38.764299" lon="-92.143194" /><trkpt lat="38.764150" lon="-92.143267" /><trkpt lat="38.764070" lon="-92.143249" /><trkpt lat="38.763993" lon="-92.143160" /><trkpt lat="38.763894" lon="-92.143147" /><trkpt lat="38.763834" lon="-92.143203" /><trkpt lat="38.763717" lon="-92.143437" /><trkpt lat="38.763624" lon="-92.143484" /><trkpt lat="38.763511" lon="-92.143437" /><trkpt lat="38.763418" lon="-92.143288" /><trkpt lat="38.763334" lon="-92.143151" /><trkpt lat="38.763248" lon="-92.143109" /><trkpt lat="38.763118" lon="-92.143117" /><trkpt lat="38.763022" lon="-92.143087" /><trkpt lat="38.762875" lon="-92.142929" /><trkpt lat="38.762785" lon="-92.142908" /><trkpt lat="38.762726" lon="-92.142951" /><trkpt lat="38.762646" lon="-92.143100" /><trkpt lat="38.762626" lon="-92.143305" /><trkpt lat="38.762549" lon="-92.143420" /><trkpt lat="38.762589" lon="-92.143561" /><trkpt lat="38.762599" lon="-92.143706" /><trkpt lat="38.762539" lon="-92.143890" /><trkpt lat="38.762449" lon="-92.144137" /><trkpt lat="38.762453" lon="-92.144291" /><trkpt lat="38.762479" lon="-92.144444" /><trkpt lat="38.762459" lon="-92.144513" /><trkpt lat="38.762400" lon="-92.144538" /><trkpt lat="38.762333" lon="-92.144526" /><trkpt lat="38.762240" lon="-92.144436" /><trkpt lat="38.762123" lon="-92.144414" /><trkpt lat="38.762033" lon="-92.144419" /><trkpt lat="38.761954" lon="-92.144372" /><trkpt lat="38.761934" lon="-92.144222" /><trkpt lat="38.761964" lon="-92.144150" /><trkpt lat="38.762050" lon="-92.144090" /><trkpt lat="38.762073" lon="-92.143949" /><trkpt lat="38.762023" lon="-92.143860" /><trkpt lat="38.761944" lon="-92.143873" /><trkpt lat="38.761854" lon="-92.143804" /><trkpt lat="38.761817" lon="-92.143685" /><trkpt lat="38.761727" lon="-92.143608" /><trkpt lat="38.761711" lon="-92.143471" /><trkpt lat="38.761747" lon="-92.143318" /><trkpt lat="38.761804" lon="-92.143215" /><trkpt lat="38.761774" lon="-92.143032" /><trkpt lat="38.761827" lon="-92.142887" /><trkpt lat="38.761784" lon="-92.142814" /><trkpt lat="38.761687" lon="-92.142827" /><trkpt lat="38.761594" lon="-92.142925" /><trkpt lat="38.761564" lon="-92.143036" /><trkpt lat="38.761448" lon="-92.143019" /><trkpt lat="38.761395" lon="-92.142972" /><trkpt lat="38.761375" lon="-92.142908" /><trkpt lat="38.761298" lon="-92.142912" /><trkpt lat="38.761225" lon="-92.142946" /><trkpt lat="38.761128" lon="-92.142865" /><trkpt lat="38.761055" lon="-92.142895" /><trkpt lat="38.761026" lon="-92.142990" /><trkpt lat="38.761037" lon="-92.143086" /><trkpt lat="38.761079" lon="-92.143296" /><trkpt lat="38.761062" lon="-92.143533" /><trkpt lat="38.761043" lon="-92.143613" /><trkpt lat="38.760955" lon="-92.143667" /><trkpt lat="38.760892" lon="-92.143678" /><trkpt lat="38.760770" lon="-92.143630" /><trkpt lat="38.760666" lon="-92.143549" /><trkpt lat="38.760584" lon="-92.143283" /><trkpt lat="38.760540" lon="-92.143000" /><trkpt lat="38.760406" lon="-92.142686" /><trkpt lat="38.760269" lon="-92.142492" /><trkpt lat="38.760185" lon="-92.142433" /><trkpt lat="38.760087" lon="-92.142417" /><trkpt lat="38.760016" lon="-92.142484" /><trkpt lat="38.759976" lon="-92.142611" /><trkpt lat="38.759892" lon="-92.142672" /><trkpt lat="38.759754" lon="-92.142664" /><trkpt lat="38.759611" lon="-92.142576" /><trkpt lat="38.759456" lon="-92.142541" /><trkpt lat="38.759358" lon="-92.142543" /><trkpt lat="38.759316" lon="-92.142457" /><trkpt lat="38.759324" lon="-92.142379" /><trkpt lat="38.759358" lon="-92.142318" /><trkpt lat="38.759435" lon="-92.142274" /><trkpt lat="38.759529" lon="-92.142277" /><trkpt lat="38.759582" lon="-92.142266" /><trkpt lat="38.759613" lon="-92.142175" /><trkpt lat="38.759607" lon="-92.142086" /><trkpt lat="38.759552" lon="-92.142027" /><trkpt lat="38.759429" lon="-92.142025" /><trkpt lat="38.759295" lon="-92.142094" /><trkpt lat="38.759142" lon="-92.142119" /><trkpt lat="38.758989" lon="-92.142221" /><trkpt lat="38.758825" lon="-92.142379" /><trkpt lat="38.758772" lon="-92.142490" /></trkseg></trk>
</gpx>