<?xml version="1.0" encoding="UTF-8"?>
<gpx version="1.1" creator="exobrain backpacking" xmlns="http://www.topografix.com/GPX/1/1">
<metadata><name>Cedar Creek Smith Creek and Devil's Backbone (1 night)</name><desc>Trail geometry from OpenStreetMap contributors (ODbL).</desc></metadata>
<wpt lat="38.8240898" lon="-92.1377923"><name>Smith Creek Trailhead</name></wpt>
<wpt lat="38.8184400" lon="-92.1418500"><name>Camp</name></wpt>
<wpt lat="38.8182489" lon="-92.1386117"><name>Overlook above Cedar Creek</name></wpt>
<wpt lat="38.8141450" lon="-92.1115892"><name>Boydsville</name></wpt>
<wpt lat="38.8044752" lon="-92.1516701"><name>Devil's Backbone</name></wpt>
<trk><name>Day 1: Smith Creek Trailhead to camp (0.8 mi)</name><trkseg><trkpt lat="38.824090" lon="-92.137792"/><trkpt lat="38.824090" lon="-92.137820"/><trkpt lat="38.821561" lon="-92.137904"/><trkpt lat="38.821413" lon="-92.137936"/><trkpt lat="38.821279" lon="-92.137946"/><trkpt lat="38.821176" lon="-92.137979"/><trkpt lat="38.821094" lon="-92.137949"/><trkpt lat="38.820948" lon="-92.137923"/><trkpt lat="38.820751" lon="-92.137948"/><trkpt lat="38.820636" lon="-92.138024"/><trkpt lat="38.820580" lon="-92.138163"/><trkpt lat="38.820570" lon="-92.138441"/><trkpt lat="38.820566" lon="-92.138630"/><trkpt lat="38.820552" lon="-92.139298"/><trkpt lat="38.820411" lon="-92.139600"/><trkpt lat="38.820333" lon="-92.139817"/><trkpt lat="38.820299" lon="-92.140052"/><trkpt lat="38.820257" lon="-92.140217"/><trkpt lat="38.820179" lon="-92.140368"/><trkpt lat="38.820090" lon="-92.140468"/><trkpt lat="38.819652" lon="-92.140785"/><trkpt lat="38.819224" lon="-92.141088"/><trkpt lat="38.818826" lon="-92.141401"/><trkpt lat="38.818628" lon="-92.141567"/><trkpt lat="38.818554" lon="-92.141655"/><trkpt lat="38.818483" lon="-92.141767"/><trkpt lat="38.818436" lon="-92.141851"/><trkpt lat="38.818396" lon="-92.142020"/><trkpt lat="38.818388" lon="-92.142214"/><trkpt lat="38.818388" lon="-92.142329"/><trkpt lat="38.818397" lon="-92.142432"/><trkpt lat="38.818350" lon="-92.142669"/><trkpt lat="38.818355" lon="-92.142919"/><trkpt lat="38.818329" lon="-92.143085"/><trkpt lat="38.818279" lon="-92.143230"/><trkpt lat="38.818179" lon="-92.143367"/><trkpt lat="38.817964" lon="-92.143620"/><trkpt lat="38.817918" lon="-92.143708"/><trkpt lat="38.817902" lon="-92.143812"/><trkpt lat="38.817911" lon="-92.143861"/><trkpt lat="38.818076" lon="-92.144144"/><trkpt lat="38.817911" lon="-92.143861"/><trkpt lat="38.817902" lon="-92.143812"/><trkpt lat="38.817918" lon="-92.143708"/><trkpt lat="38.817964" lon="-92.143620"/><trkpt lat="38.818179" lon="-92.143367"/><trkpt lat="38.818279" lon="-92.143230"/><trkpt lat="38.818329" lon="-92.143085"/><trkpt lat="38.818355" lon="-92.142919"/><trkpt lat="38.818350" lon="-92.142669"/><trkpt lat="38.818397" lon="-92.142432"/><trkpt lat="38.818388" lon="-92.142329"/><trkpt lat="38.818388" lon="-92.142214"/><trkpt lat="38.818396" lon="-92.142020"/><trkpt lat="38.818436" lon="-92.141851"/></trkseg></trk>
<trk><name>Day 1 afternoon: Devil's Backbone side trip (4.2 mi)</name><trkseg><trkpt lat="38.818436" lon="-92.141851"/><trkpt lat="38.818396" lon="-92.142020"/><trkpt lat="38.818388" lon="-92.142214"/><trkpt lat="38.818388" lon="-92.142329"/><trkpt lat="38.818397" lon="-92.142432"/><trkpt lat="38.818350" lon="-92.142669"/><trkpt lat="38.818355" lon="-92.142919"/><trkpt lat="38.818329" lon="-92.143085"/><trkpt lat="38.818279" lon="-92.143230"/><trkpt lat="38.818179" lon="-92.143367"/><trkpt lat="38.817964" lon="-92.143620"/><trkpt lat="38.817918" lon="-92.143708"/><trkpt lat="38.817902" lon="-92.143812"/><trkpt lat="38.817911" lon="-92.143861"/><trkpt lat="38.818076" lon="-92.144144"/><trkpt lat="38.818105" lon="-92.144202"/><trkpt lat="38.818125" lon="-92.144305"/><trkpt lat="38.818123" lon="-92.144561"/><trkpt lat="38.818104" lon="-92.145727"/><trkpt lat="38.818111" lon="-92.146028"/><trkpt lat="38.818115" lon="-92.147177"/><trkpt lat="38.818092" lon="-92.147330"/><trkpt lat="38.818043" lon="-92.147456"/><trkpt lat="38.817896" lon="-92.147560"/><trkpt lat="38.817398" lon="-92.147874"/><trkpt lat="38.817262" lon="-92.147976"/><trkpt lat="38.817206" lon="-92.148057"/><trkpt lat="38.817148" lon="-92.148184"/><trkpt lat="38.817115" lon="-92.148330"/><trkpt lat="38.817132" lon="-92.149302"/><trkpt lat="38.817178" lon="-92.150182"/><trkpt lat="38.817229" lon="-92.150939"/><trkpt lat="38.817263" lon="-92.151395"/><trkpt lat="38.817256" lon="-92.151668"/><trkpt lat="38.817193" lon="-92.152320"/><trkpt lat="38.817203" lon="-92.152767"/><trkpt lat="38.817234" lon="-92.153596"/><trkpt lat="38.817260" lon="-92.154635"/><trkpt lat="38.817306" lon="-92.156795"/><trkpt lat="38.816396" lon="-92.156762"/><trkpt lat="38.815177" lon="-92.156808"/><trkpt lat="38.813257" lon="-92.156924"/><trkpt lat="38.813048" lon="-92.156934"/><trkpt lat="38.810454" lon="-92.157056"/><trkpt lat="38.810185" lon="-92.157044"/><trkpt lat="38.810044" lon="-92.156994"/><trkpt lat="38.809851" lon="-92.156666"/><trkpt lat="38.809838" lon="-92.156396"/><trkpt lat="38.809852" lon="-92.156207"/><trkpt lat="38.809716" lon="-92.155733"/><trkpt lat="38.809716" lon="-92.155503"/><trkpt lat="38.809596" lon="-92.155255"/><trkpt lat="38.809453" lon="-92.155089"/><trkpt lat="38.809373" lon="-92.154841"/><trkpt lat="38.809191" lon="-92.154619"/><trkpt lat="38.809111" lon="-92.154406"/><trkpt lat="38.809137" lon="-92.154146"/><trkpt lat="38.809018" lon="-92.153881"/><trkpt lat="38.808968" lon="-92.153672"/><trkpt lat="38.808868" lon="-92.153463"/><trkpt lat="38.808838" lon="-92.153237"/><trkpt lat="38.808688" lon="-92.152959"/><trkpt lat="38.808708" lon="-92.152780"/><trkpt lat="38.808642" lon="-92.152580"/><trkpt lat="38.808639" lon="-92.152375"/><trkpt lat="38.808552" lon="-92.152251"/><trkpt lat="38.808352" lon="-92.152033"/><trkpt lat="38.808269" lon="-92.151752"/><trkpt lat="38.808120" lon="-92.151547"/><trkpt lat="38.808050" lon="-92.151342"/><trkpt lat="38.807925" lon="-92.151239"/><trkpt lat="38.807818" lon="-92.151059"/><trkpt lat="38.807720" lon="-92.151005"/><trkpt lat="38.807618" lon="-92.150994"/><trkpt lat="38.807516" lon="-92.150856"/><trkpt lat="38.807406" lon="-92.150578"/><trkpt lat="38.807285" lon="-92.150399"/><trkpt lat="38.807212" lon="-92.150330"/><trkpt lat="38.807206" lon="-92.150404"/><trkpt lat="38.807200" lon="-92.150533"/><trkpt lat="38.807235" lon="-92.150747"/><trkpt lat="38.807259" lon="-92.150844"/><trkpt lat="38.807244" lon="-92.150943"/><trkpt lat="38.807148" lon="-92.151016"/><trkpt lat="38.807035" lon="-92.151104"/><trkpt lat="38.806886" lon="-92.151171"/><trkpt lat="38.806811" lon="-92.151268"/><trkpt lat="38.806738" lon="-92.151281"/><trkpt lat="38.806675" lon="-92.151348"/><trkpt lat="38.806610" lon="-92.151437"/><trkpt lat="38.806627" lon="-92.151515"/><trkpt lat="38.806548" lon="-92.151635"/><trkpt lat="38.806466" lon="-92.151850"/><trkpt lat="38.806345" lon="-92.151858"/><trkpt lat="38.806309" lon="-92.151944"/><trkpt lat="38.806247" lon="-92.151960"/><trkpt lat="38.806220" lon="-92.152078"/><trkpt lat="38.806176" lon="-92.152233"/><trkpt lat="38.806113" lon="-92.152360"/><trkpt lat="38.806099" lon="-92.152493"/><trkpt lat="38.805149" lon="-92.152218"/><trkpt lat="38.804744" lon="-92.152130"/><trkpt lat="38.804634" lon="-92.151995"/><trkpt lat="38.804451" lon="-92.151792"/><trkpt lat="38.804634" lon="-92.151995"/><trkpt lat="38.804744" lon="-92.152130"/><trkpt lat="38.805149" lon="-92.152218"/><trkpt lat="38.806099" lon="-92.152493"/><trkpt lat="38.806113" lon="-92.152360"/><trkpt lat="38.806176" lon="-92.152233"/><trkpt lat="38.806220" lon="-92.152078"/><trkpt lat="38.806247" lon="-92.151960"/><trkpt lat="38.806309" lon="-92.151944"/><trkpt lat="38.806345" lon="-92.151858"/><trkpt lat="38.806466" lon="-92.151850"/><trkpt lat="38.806548" lon="-92.151635"/><trkpt lat="38.806627" lon="-92.151515"/><trkpt lat="38.806610" lon="-92.151437"/><trkpt lat="38.806675" lon="-92.151348"/><trkpt lat="38.806738" lon="-92.151281"/><trkpt lat="38.806811" lon="-92.151268"/><trkpt lat="38.806886" lon="-92.151171"/><trkpt lat="38.807035" lon="-92.151104"/><trkpt lat="38.807148" lon="-92.151016"/><trkpt lat="38.807244" lon="-92.150943"/><trkpt lat="38.807259" lon="-92.150844"/><trkpt lat="38.807235" lon="-92.150747"/><trkpt lat="38.807200" lon="-92.150533"/><trkpt lat="38.807206" lon="-92.150404"/><trkpt lat="38.807212" lon="-92.150330"/><trkpt lat="38.807285" lon="-92.150399"/><trkpt lat="38.807406" lon="-92.150578"/><trkpt lat="38.807516" lon="-92.150856"/><trkpt lat="38.807618" lon="-92.150994"/><trkpt lat="38.807720" lon="-92.151005"/><trkpt lat="38.807818" lon="-92.151059"/><trkpt lat="38.807925" lon="-92.151239"/><trkpt lat="38.808050" lon="-92.151342"/><trkpt lat="38.808120" lon="-92.151547"/><trkpt lat="38.808269" lon="-92.151752"/><trkpt lat="38.808352" lon="-92.152033"/><trkpt lat="38.808552" lon="-92.152251"/><trkpt lat="38.808639" lon="-92.152375"/><trkpt lat="38.808642" lon="-92.152580"/><trkpt lat="38.808708" lon="-92.152780"/><trkpt lat="38.808688" lon="-92.152959"/><trkpt lat="38.808838" lon="-92.153237"/><trkpt lat="38.808868" lon="-92.153463"/><trkpt lat="38.808968" lon="-92.153672"/><trkpt lat="38.809018" lon="-92.153881"/><trkpt lat="38.809137" lon="-92.154146"/><trkpt lat="38.809111" lon="-92.154406"/><trkpt lat="38.809191" lon="-92.154619"/><trkpt lat="38.809373" lon="-92.154841"/><trkpt lat="38.809453" lon="-92.155089"/><trkpt lat="38.809596" lon="-92.155255"/><trkpt lat="38.809716" lon="-92.155503"/><trkpt lat="38.809716" lon="-92.155733"/><trkpt lat="38.809852" lon="-92.156207"/><trkpt lat="38.809838" lon="-92.156396"/><trkpt lat="38.809851" lon="-92.156666"/><trkpt lat="38.810044" lon="-92.156994"/><trkpt lat="38.810185" lon="-92.157044"/><trkpt lat="38.810454" lon="-92.157056"/><trkpt lat="38.813048" lon="-92.156934"/><trkpt lat="38.813257" lon="-92.156924"/><trkpt lat="38.815177" lon="-92.156808"/><trkpt lat="38.816396" lon="-92.156762"/><trkpt lat="38.817306" lon="-92.156795"/><trkpt lat="38.817260" lon="-92.154635"/><trkpt lat="38.817234" lon="-92.153596"/><trkpt lat="38.817203" lon="-92.152767"/><trkpt lat="38.817193" lon="-92.152320"/><trkpt lat="38.817256" lon="-92.151668"/><trkpt lat="38.817263" lon="-92.151395"/><trkpt lat="38.817229" lon="-92.150939"/><trkpt lat="38.817178" lon="-92.150182"/><trkpt lat="38.817132" lon="-92.149302"/><trkpt lat="38.817115" lon="-92.148330"/><trkpt lat="38.817148" lon="-92.148184"/><trkpt lat="38.817206" lon="-92.148057"/><trkpt lat="38.817262" lon="-92.147976"/><trkpt lat="38.817398" lon="-92.147874"/><trkpt lat="38.817896" lon="-92.147560"/><trkpt lat="38.818043" lon="-92.147456"/><trkpt lat="38.818092" lon="-92.147330"/><trkpt lat="38.818115" lon="-92.147177"/><trkpt lat="38.818111" lon="-92.146028"/><trkpt lat="38.818104" lon="-92.145727"/><trkpt lat="38.818123" lon="-92.144561"/><trkpt lat="38.818125" lon="-92.144305"/><trkpt lat="38.818105" lon="-92.144202"/><trkpt lat="38.818076" lon="-92.144144"/><trkpt lat="38.817911" lon="-92.143861"/><trkpt lat="38.817902" lon="-92.143812"/><trkpt lat="38.817918" lon="-92.143708"/><trkpt lat="38.817964" lon="-92.143620"/><trkpt lat="38.818179" lon="-92.143367"/><trkpt lat="38.818279" lon="-92.143230"/><trkpt lat="38.818329" lon="-92.143085"/><trkpt lat="38.818355" lon="-92.142919"/><trkpt lat="38.818350" lon="-92.142669"/><trkpt lat="38.818397" lon="-92.142432"/><trkpt lat="38.818388" lon="-92.142329"/><trkpt lat="38.818388" lon="-92.142214"/><trkpt lat="38.818396" lon="-92.142020"/><trkpt lat="38.818436" lon="-92.141851"/></trkseg></trk>
<trk><name>Day 2: Smith Creek Loop back to the trailhead (5.3 mi)</name><trkseg><trkpt lat="38.818436" lon="-92.141851"/><trkpt lat="38.818333" lon="-92.141701"/><trkpt lat="38.818330" lon="-92.141554"/><trkpt lat="38.818272" lon="-92.141398"/><trkpt lat="38.818216" lon="-92.141220"/><trkpt lat="38.818189" lon="-92.140958"/><trkpt lat="38.818214" lon="-92.140774"/><trkpt lat="38.818261" lon="-92.140662"/><trkpt lat="38.818313" lon="-92.140574"/><trkpt lat="38.818408" lon="-92.140540"/><trkpt lat="38.818480" lon="-92.140491"/><trkpt lat="38.818590" lon="-92.140276"/><trkpt lat="38.818660" lon="-92.140150"/><trkpt lat="38.818828" lon="-92.140023"/><trkpt lat="38.818990" lon="-92.139956"/><trkpt lat="38.819111" lon="-92.139875"/><trkpt lat="38.819233" lon="-92.139778"/><trkpt lat="38.819384" lon="-92.139607"/><trkpt lat="38.819441" lon="-92.139466"/><trkpt lat="38.819452" lon="-92.139399"/><trkpt lat="38.819441" lon="-92.139288"/><trkpt lat="38.819412" lon="-92.139102"/><trkpt lat="38.819287" lon="-92.138974"/><trkpt lat="38.819114" lon="-92.138834"/><trkpt lat="38.818887" lon="-92.138719"/><trkpt lat="38.818637" lon="-92.138575"/><trkpt lat="38.818528" lon="-92.138521"/><trkpt lat="38.818401" lon="-92.138492"/><trkpt lat="38.818339" lon="-92.138390"/><trkpt lat="38.818250" lon="-92.138333"/><trkpt lat="38.818235" lon="-92.138241"/><trkpt lat="38.818241" lon="-92.138135"/><trkpt lat="38.818202" lon="-92.138061"/><trkpt lat="38.818162" lon="-92.137973"/><trkpt lat="38.818129" lon="-92.137817"/><trkpt lat="38.818089" lon="-92.137672"/><trkpt lat="38.817930" lon="-92.137385"/><trkpt lat="38.817870" lon="-92.137174"/><trkpt lat="38.817750" lon="-92.136972"/><trkpt lat="38.817719" lon="-92.136739"/><trkpt lat="38.817719" lon="-92.136616"/><trkpt lat="38.817637" lon="-92.136538"/><trkpt lat="38.817589" lon="-92.136444"/><trkpt lat="38.817581" lon="-92.136337"/><trkpt lat="38.817516" lon="-92.136138"/><trkpt lat="38.817416" lon="-92.136071"/><trkpt lat="38.817349" lon="-92.135975"/><trkpt lat="38.817324" lon="-92.135846"/><trkpt lat="38.817347" lon="-92.135714"/><trkpt lat="38.817362" lon="-92.135604"/><trkpt lat="38.817485" lon="-92.135422"/><trkpt lat="38.817573" lon="-92.135385"/><trkpt lat="38.817742" lon="-92.135344"/><trkpt lat="38.817855" lon="-92.135358"/><trkpt lat="38.817972" lon="-92.135411"/><trkpt lat="38.818060" lon="-92.135406"/><trkpt lat="38.818115" lon="-92.135367"/><trkpt lat="38.818173" lon="-92.135264"/><trkpt lat="38.818223" lon="-92.135060"/><trkpt lat="38.818225" lon="-92.134939"/><trkpt lat="38.818189" lon="-92.134821"/><trkpt lat="38.818206" lon="-92.134593"/><trkpt lat="38.818204" lon="-92.134456"/><trkpt lat="38.818219" lon="-92.134312"/><trkpt lat="38.818187" lon="-92.134180"/><trkpt lat="38.818170" lon="-92.134073"/><trkpt lat="38.818179" lon="-92.133960"/><trkpt lat="38.818168" lon="-92.133837"/><trkpt lat="38.818168" lon="-92.133751"/><trkpt lat="38.818196" lon="-92.133708"/><trkpt lat="38.818264" lon="-92.133646"/><trkpt lat="38.818325" lon="-92.133558"/><trkpt lat="38.818369" lon="-92.133459"/><trkpt lat="38.818409" lon="-92.133410"/><trkpt lat="38.818430" lon="-92.133338"/><trkpt lat="38.818413" lon="-92.133287"/><trkpt lat="38.818350" lon="-92.133257"/><trkpt lat="38.818252" lon="-92.133156"/><trkpt lat="38.818051" lon="-92.133083"/><trkpt lat="38.817999" lon="-92.133064"/><trkpt lat="38.817954" lon="-92.132966"/><trkpt lat="38.817957" lon="-92.132882"/><trkpt lat="38.817905" lon="-92.132785"/><trkpt lat="38.817821" lon="-92.132753"/><trkpt lat="38.817663" lon="-92.132697"/><trkpt lat="38.817594" lon="-92.132608"/><trkpt lat="38.817518" lon="-92.132523"/><trkpt lat="38.817401" lon="-92.132464"/><trkpt lat="38.817310" lon="-92.132469"/><trkpt lat="38.817211" lon="-92.132526"/><trkpt lat="38.817137" lon="-92.132597"/><trkpt lat="38.816989" lon="-92.132560"/><trkpt lat="38.816901" lon="-92.132424"/><trkpt lat="38.816833" lon="-92.132370"/><trkpt lat="38.816779" lon="-92.132341"/><trkpt lat="38.816717" lon="-92.132272"/><trkpt lat="38.816623" lon="-92.132181"/><trkpt lat="38.816507" lon="-92.132104"/><trkpt lat="38.816450" lon="-92.132079"/><trkpt lat="38.816359" lon="-92.132002"/><trkpt lat="38.816249" lon="-92.131930"/><trkpt lat="38.816184" lon="-92.131900"/><trkpt lat="38.816093" lon="-92.131929"/><trkpt lat="38.816054" lon="-92.131871"/><trkpt lat="38.816025" lon="-92.131889"/><trkpt lat="38.815934" lon="-92.131860"/><trkpt lat="38.815836" lon="-92.131855"/><trkpt lat="38.815682" lon="-92.131889"/><trkpt lat="38.815515" lon="-92.131868"/><trkpt lat="38.815373" lon="-92.131911"/><trkpt lat="38.815194" lon="-92.131933"/><trkpt lat="38.815033" lon="-92.131955"/><trkpt lat="38.814897" lon="-92.131944"/><trkpt lat="38.814797" lon="-92.131933"/><trkpt lat="38.814690" lon="-92.131966"/><trkpt lat="38.814593" lon="-92.131966"/><trkpt lat="38.814438" lon="-92.131983"/><trkpt lat="38.814320" lon="-92.132036"/><trkpt lat="38.814275" lon="-92.132238"/><trkpt lat="38.814242" lon="-92.132359"/><trkpt lat="38.814114" lon="-92.132493"/><trkpt lat="38.814006" lon="-92.132519"/><trkpt lat="38.813927" lon="-92.132592"/><trkpt lat="38.813819" lon="-92.132661"/><trkpt lat="38.813671" lon="-92.132609"/><trkpt lat="38.813545" lon="-92.132582"/><trkpt lat="38.813407" lon="-92.132599"/><trkpt lat="38.813332" lon="-92.132694"/><trkpt lat="38.813239" lon="-92.132730"/><trkpt lat="38.813128" lon="-92.132800"/><trkpt lat="38.813071" lon="-92.132817"/><trkpt lat="38.812998" lon="-92.132839"/><trkpt lat="38.812945" lon="-92.132883"/><trkpt lat="38.812892" lon="-92.132959"/><trkpt lat="38.812796" lon="-92.132977"/><trkpt lat="38.812731" lon="-92.132996"/><trkpt lat="38.812622" lon="-92.133006"/><trkpt lat="38.812600" lon="-92.133127"/><trkpt lat="38.812605" lon="-92.133354"/><trkpt lat="38.812620" lon="-92.133527"/><trkpt lat="38.812521" lon="-92.133687"/><trkpt lat="38.812407" lon="-92.133694"/><trkpt lat="38.812291" lon="-92.133698"/><trkpt lat="38.812095" lon="-92.133694"/><trkpt lat="38.811957" lon="-92.133716"/><trkpt lat="38.811798" lon="-92.133771"/><trkpt lat="38.811735" lon="-92.133785"/><trkpt lat="38.811676" lon="-92.133822"/><trkpt lat="38.811718" lon="-92.133953"/><trkpt lat="38.811713" lon="-92.134073"/><trkpt lat="38.811724" lon="-92.134135"/><trkpt lat="38.811696" lon="-92.134218"/><trkpt lat="38.811565" lon="-92.134415"/><trkpt lat="38.811429" lon="-92.134499"/><trkpt lat="38.811350" lon="-92.134579"/><trkpt lat="38.811287" lon="-92.134739"/><trkpt lat="38.811278" lon="-92.134948"/><trkpt lat="38.811228" lon="-92.135247"/><trkpt lat="38.811253" lon="-92.135436"/><trkpt lat="38.811116" lon="-92.135977"/><trkpt lat="38.811124" lon="-92.136214"/><trkpt lat="38.811067" lon="-92.136395"/><trkpt lat="38.811051" lon="-92.136708"/><trkpt lat="38.810961" lon="-92.136773"/><trkpt lat="38.810940" lon="-92.137021"/><trkpt lat="38.810881" lon="-92.137208"/><trkpt lat="38.810976" lon="-92.137224"/><trkpt lat="38.811029" lon="-92.137446"/><trkpt lat="38.811010" lon="-92.137610"/><trkpt lat="38.811126" lon="-92.138104"/><trkpt lat="38.811126" lon="-92.138254"/><trkpt lat="38.811151" lon="-92.138388"/><trkpt lat="38.811140" lon="-92.138516"/><trkpt lat="38.811123" lon="-92.138712"/><trkpt lat="38.811112" lon="-92.138927"/><trkpt lat="38.811055" lon="-92.139160"/><trkpt lat="38.810939" lon="-92.139356"/><trkpt lat="38.810735" lon="-92.139545"/><trkpt lat="38.810614" lon="-92.139617"/><trkpt lat="38.810438" lon="-92.139697"/><trkpt lat="38.810303" lon="-92.139743"/><trkpt lat="38.810145" lon="-92.139778"/><trkpt lat="38.810008" lon="-92.139675"/><trkpt lat="38.809816" lon="-92.139611"/><trkpt lat="38.809680" lon="-92.139422"/><trkpt lat="38.809476" lon="-92.139382"/><trkpt lat="38.809490" lon="-92.138837"/><trkpt lat="38.809432" lon="-92.135546"/><trkpt lat="38.809353" lon="-92.135121"/><trkpt lat="38.809428" lon="-92.134483"/><trkpt lat="38.809318" lon="-92.131382"/><trkpt lat="38.809317" lon="-92.130686"/><trkpt lat="38.809374" lon="-92.130394"/><trkpt lat="38.809291" lon="-92.129998"/><trkpt lat="38.809243" lon="-92.127883"/><trkpt lat="38.809192" lon="-92.126175"/><trkpt lat="38.809200" lon="-92.125624"/><trkpt lat="38.809187" lon="-92.124630"/><trkpt lat="38.809155" lon="-92.123346"/><trkpt lat="38.809130" lon="-92.122646"/><trkpt lat="38.809218" lon="-92.122411"/><trkpt lat="38.809212" lon="-92.121329"/><trkpt lat="38.809092" lon="-92.120898"/><trkpt lat="38.809016" lon="-92.118857"/><trkpt lat="38.808997" lon="-92.117540"/><trkpt lat="38.809089" lon="-92.117031"/><trkpt lat="38.809001" lon="-92.116555"/><trkpt lat="38.809120" lon="-92.116398"/><trkpt lat="38.809372" lon="-92.116175"/><trkpt lat="38.809541" lon="-92.115812"/><trkpt lat="38.809779" lon="-92.115531"/><trkpt lat="38.809797" lon="-92.115260"/><trkpt lat="38.809694" lon="-92.114964"/><trkpt lat="38.809727" lon="-92.114776"/><trkpt lat="38.809804" lon="-92.114581"/><trkpt lat="38.809961" lon="-92.114433"/><trkpt lat="38.810037" lon="-92.114217"/><trkpt lat="38.810124" lon="-92.114109"/><trkpt lat="38.810429" lon="-92.113962"/><trkpt lat="38.810523" lon="-92.113822"/><trkpt lat="38.810691" lon="-92.113777"/><trkpt lat="38.810817" lon="-92.113669"/><trkpt lat="38.810977" lon="-92.113600"/><trkpt lat="38.811058" lon="-92.113453"/><trkpt lat="38.811090" lon="-92.113223"/><trkpt lat="38.811593" lon="-92.113030"/><trkpt lat="38.811805" lon="-92.112963"/><trkpt lat="38.812085" lon="-92.112904"/><trkpt lat="38.812188" lon="-92.112860"/><trkpt lat="38.812270" lon="-92.112798"/><trkpt lat="38.812308" lon="-92.112669"/><trkpt lat="38.812312" lon="-92.112416"/><trkpt lat="38.812350" lon="-92.112255"/><trkpt lat="38.812406" lon="-92.112177"/><trkpt lat="38.812504" lon="-92.112099"/><trkpt lat="38.812590" lon="-92.112057"/><trkpt lat="38.813406" lon="-92.111751"/><trkpt lat="38.814123" lon="-92.111532"/><trkpt lat="38.814145" lon="-92.111589"/><trkpt lat="38.814197" lon="-92.111711"/><trkpt lat="38.814272" lon="-92.111895"/><trkpt lat="38.814529" lon="-92.112404"/><trkpt lat="38.814683" lon="-92.113229"/><trkpt lat="38.814893" lon="-92.113773"/><trkpt lat="38.814966" lon="-92.114407"/><trkpt lat="38.815204" lon="-92.115105"/><trkpt lat="38.815313" lon="-92.115894"/><trkpt lat="38.815450" lon="-92.116601"/><trkpt lat="38.815837" lon="-92.117270"/><trkpt lat="38.815947" lon="-92.117751"/><trkpt lat="38.816220" lon="-92.118216"/><trkpt lat="38.816593" lon="-92.118764"/><trkpt lat="38.816908" lon="-92.119095"/><trkpt lat="38.816981" lon="-92.119385"/><trkpt lat="38.816987" lon="-92.119744"/><trkpt lat="38.817296" lon="-92.120247"/><trkpt lat="38.817537" lon="-92.120507"/><trkpt lat="38.817736" lon="-92.120584"/><trkpt lat="38.817879" lon="-92.120538"/><trkpt lat="38.818156" lon="-92.120780"/><trkpt lat="38.818503" lon="-92.121308"/><trkpt lat="38.818667" lon="-92.122248"/><trkpt lat="38.818772" lon="-92.123347"/><trkpt lat="38.818870" lon="-92.124100"/><trkpt lat="38.818944" lon="-92.124947"/><trkpt lat="38.819035" lon="-92.125416"/><trkpt lat="38.819377" lon="-92.126227"/><trkpt lat="38.819473" lon="-92.126714"/><trkpt lat="38.819832" lon="-92.127154"/><trkpt lat="38.820025" lon="-92.127506"/><trkpt lat="38.820141" lon="-92.127667"/><trkpt lat="38.820290" lon="-92.127876"/><trkpt lat="38.820328" lon="-92.128092"/><trkpt lat="38.820280" lon="-92.128354"/><trkpt lat="38.820167" lon="-92.128527"/><trkpt lat="38.820198" lon="-92.128785"/><trkpt lat="38.820067" lon="-92.129042"/><trkpt lat="38.820068" lon="-92.129245"/><trkpt lat="38.820129" lon="-92.129441"/><trkpt lat="38.820254" lon="-92.129470"/><trkpt lat="38.820363" lon="-92.129349"/><trkpt lat="38.820503" lon="-92.129116"/><trkpt lat="38.820680" lon="-92.128939"/><trkpt lat="38.820883" lon="-92.128871"/><trkpt lat="38.821665" lon="-92.128837"/><trkpt lat="38.822381" lon="-92.128837"/><trkpt lat="38.822736" lon="-92.128801"/><trkpt lat="38.822994" lon="-92.128657"/><trkpt lat="38.823244" lon="-92.128540"/><trkpt lat="38.823425" lon="-92.128609"/><trkpt lat="38.823594" lon="-92.128519"/><trkpt lat="38.823720" lon="-92.128410"/><trkpt lat="38.823907" lon="-92.128507"/><trkpt lat="38.824033" lon="-92.128743"/><trkpt lat="38.824074" lon="-92.129069"/><trkpt lat="38.824209" lon="-92.129576"/><trkpt lat="38.824231" lon="-92.129763"/><trkpt lat="38.824148" lon="-92.129841"/><trkpt lat="38.824036" lon="-92.129887"/><trkpt lat="38.823960" lon="-92.130026"/><trkpt lat="38.823947" lon="-92.130113"/><trkpt lat="38.823983" lon="-92.130533"/><trkpt lat="38.823967" lon="-92.130831"/><trkpt lat="38.824001" lon="-92.131159"/><trkpt lat="38.824001" lon="-92.131791"/><trkpt lat="38.823997" lon="-92.132214"/><trkpt lat="38.824035" lon="-92.132715"/><trkpt lat="38.824028" lon="-92.133218"/><trkpt lat="38.824071" lon="-92.133525"/><trkpt lat="38.824101" lon="-92.133838"/><trkpt lat="38.824114" lon="-92.134028"/><trkpt lat="38.824087" lon="-92.134648"/><trkpt lat="38.824091" lon="-92.134842"/><trkpt lat="38.824087" lon="-92.135327"/><trkpt lat="38.824115" lon="-92.135530"/><trkpt lat="38.824134" lon="-92.135669"/><trkpt lat="38.824140" lon="-92.136126"/><trkpt lat="38.824079" lon="-92.136532"/><trkpt lat="38.824101" lon="-92.137191"/><trkpt lat="38.824092" lon="-92.137541"/><trkpt lat="38.824090" lon="-92.137792"/></trkseg></trk>
</gpx>